{
    "links": {
        "self": "http://www.neowsapp.com/rest/v1/neo/3568291?api_key=iIulBulltgU6a56xZRHN4H3l9WmuAYTsLGpBGhQ2"
    },
    "id": "3568291",
    "neo_reference_id": "3568291",
    "name": "(2011 MC)",
    "designation": "2011 MC",
    "nasa_jpl_url": "http://ssd.jpl.nasa.gov/sbdb.cgi?sstr=3568291",
    "absolute_magnitude_h": 21.4,
    "estimated_diameter": {
        "kilometers": {
            "estimated_diameter_min": 0.1394938229,
            "estimated_diameter_max": 0.3119176705
        },
        "meters": {
            "estimated_diameter_min": 139.4938229344,
            "estimated_diameter_max": 311.9176705226
        },
        "miles": {
            "estimated_diameter_min": 0.0866774163,
            "estimated_diameter_max": 0.1938165949
        },
        "feet": {
            "estimated_diameter_min": 457.6569140361,
            "estimated_diameter_max": 1023.3519701574
        }
    },
    "is_potentially_hazardous_asteroid": false,
    "close_approach_data": [
        {
            "close_approach_date": "1919-12-01",
            "close_approach_date_full": "1919-Dec-01 23:15",
            "epoch_date_close_approach": -1580517900000,
            "relative_velocity": {
                "kilometers_per_second": "7.2929807308",
                "kilometers_per_hour": "26254.7306309057",
                "miles_per_hour": "16313.6685967425"
            },
            "miss_distance": {
                "astronomical": "1.807607411",
                "lunar": "703.159282879",
                "kilometers": "270414218.48181457",
                "miles": "168027603.821078266"
            },
            "orbiting_body": "Juptr"
        },
        {
            "close_approach_date": "2007-06-07",
            "close_approach_date_full": "2007-Jun-07 16:23",
            "epoch_date_close_approach": 1181233380000,
            "relative_velocity": {
                "kilometers_per_second": "25.7159719033",
                "kilometers_per_hour": "92577.498851839",
                "miles_per_hour": "57524.0575504663"
            },
            "miss_distance": {
                "astronomical": "0.4034638609",
                "lunar": "156.9474418901",
                "kilometers": "60357334.212616283",
                "miles": "37504308.3818313854"
            },
            "orbiting_body": "Earth"
        },
        {
            "close_approach_date": "2011-06-29",
            "close_approach_date_full": "2011-Jun-29 21:32",
            "epoch_date_close_approach": 1309383120000,
            "relative_velocity": {
                "kilometers_per_second": "17.2292443659",
                "kilometers_per_hour": "62025.279717226",
                "miles_per_hour": "38540.096722073"
            },
            "miss_distance": {
                "astronomical": "0.0736012202",
                "lunar": "28.6308746578",
                "kilometers": "11010585.771320974",
                "miles": "6841660.7462744812"
            },
            "orbiting_body": "Earth"
        },
        {
            "close_approach_date": "2015-08-03",
            "close_approach_date_full": "2015-Aug-03 09:54",
            "epoch_date_close_approach": 1438595640000,
            "relative_velocity": {
                "kilometers_per_second": "15.1141906179",
                "kilometers_per_hour": "54411.0862243914",
                "miles_per_hour": "33808.9329931503"
            },
            "miss_distance": {
                "astronomical": "0.3680018391",
                "lunar": "143.1527154099",
                "kilometers": "55052291.285442717",
                "miles": "34207907.5630228146"
            },
            "orbiting_body": "Earth"
        }
    ],
    "orbital_data": {
        "orbit_id": "11",
        "orbit_determination_date": "2020-08-14 07:22:12",
        "first_observation_date": "2011-06-02",
        "last_observation_date": "2011-07-03",
        "data_arc_in_days": 31,
        "observations_used": 87,
        "orbit_uncertainty": "6",
        "minimum_orbit_intersection": ".0665191",
        "jupiter_tisserand_invariant": "3.045",
        "epoch_osculation": "2459000.5",
        "eccentricity": ".6169880885118729",
        "semi_major_axis": "2.54369555715407",
        "inclination": "24.74885378227451",
        "ascending_node_longitude": "91.94120880710618",
        "orbital_period": "1481.82229257163",
        "perihelion_distance": ".9742656975894367",
        "perihelion_argument": "225.2312350881419",
        "aphelion_distance": "4.113125416718703",
        "perihelion_time": "2458737.122052401298",
        "mean_anomaly": "63.98612142012254",
        "mean_motion": ".2429441113179892",
        "equinox": "J2000",
        "orbit_class": {
            "orbit_class_type": "APO",
            "orbit_class_description": "Near-Earth asteroid orbits which cross the Earth’s orbit similar to that of 1862 Apollo",
            "orbit_class_range": "a (semi-major axis) > 1.0 AU; q (perihelion) < 1.017 AU"
        }
    },
    "is_sentry_object": false
}